ONEWEB-0678             
1 56714U 23068E   24086.94378438 -.00000038  00000+0 -13597-3 0  9998
2 56714  87.8994  60.7972 0001642  77.2947 282.8367 13.15548639 42490
ONEWEB-0679             
1 56715U 23068F   24086.92245650  .00000162  00000+0  38894-3 0  9999
2 56715  87.9128  30.4501 0002680  87.4685 272.6753 13.16597720 44841
ONEWEB-0681             
1 56717U 23068H   24086.88503418 -.00000001  00000+0 -34970-4 0  9991
2 56717  87.9273  45.6692 0002917  62.9349 297.2083 13.21828353 43776
ONEWEB-0682             
1 56718U 23068J   24086.89386597  .00000089  00000+0  20279-3 0  9990
2 56718  87.8989  60.8514 0002429  95.6649 264.4758 13.15550855 42659
ONEWEB-0683             
1 56719U 23068K   24086.91525211  .00000214  00000+0  53536-3 0  9994
2 56719  87.8990  60.8201 0002211  91.5366 268.6017 13.15551322 42626
ONEWEB-0684             
1 56720U 23068L   24086.92320308 -.00009300  00000+0 -24764-1 0  9993
2 56720  87.8980  60.8962 0000549  94.7895 265.3298 13.15546800 42456
ONEWEB-0686             
1 56721U 23068M   24086.91217695  .00000161  00000+0  38675-3 0  9999
2 56721  87.9128  30.4885 0001751  82.1575 277.9755 13.16595489 44830
